{
"type": "FeatureCollection",
"name": "offshore",
"crs": { "type": "name", "properties": { "name": "urn:ogc:def:crs:OGC:1.3:CRS84" } },
"features": [
{ "type": "Feature", "properties": { "begin": "2", "end": "58" }, "geometry": { "type": "Polygon", "coordinates": [ [ [ -9.223859, 38.411365 ], [ -9.215126, 38.411126 ], [ -9.203067, 38.407529 ], [ -9.195836, 38.406369 ], [ -9.185965, 38.410941 ], [ -9.163542, 38.418679 ], [ -9.142342, 38.422983 ], [ -9.116678, 38.428563 ], [ -9.116442, 38.433838 ], [ -9.107237, 38.438258 ], [ -9.106722, 38.438947 ], [ -9.111142, 38.438393 ], [ -9.109898, 38.440208 ], [ -9.105392, 38.439872 ], [ -9.098482, 38.438359 ], [ -9.095778, 38.433351 ], [ -9.088676, 38.432057 ], [ -9.075093, 38.430793 ], [ -9.070759, 38.430188 ], [ -9.053378, 38.435331 ], [ -9.028959, 38.441852 ], [ -9.004412, 38.452337 ], [ -8.989863, 38.457579 ], [ -8.984799, 38.457747 ], [ -8.979135, 38.453513 ], [ -8.975658, 38.449044 ], [ -8.961539, 38.465344 ], [ -8.933, 38.488019 ], [ -8.927808, 38.484963 ], [ -8.945789, 38.472164 ], [ -8.960037, 38.457347 ], [ -8.971238, 38.448207 ], [ -8.960509, 38.442628 ], [ -8.941669, 38.438191 ], [ -8.899698, 38.433348 ], [ -8.865194, 38.424675 ], [ -8.847342, 38.418086 ], [ -8.836012, 38.401072 ], [ -8.813782, 38.366291 ], [ -8.80228, 38.329475 ], [ -8.796959, 38.327051 ], [ -8.801079, 38.322473 ], [ -8.797903, 38.304696 ], [ -8.794384, 38.280371 ], [ -8.778591, 38.280638 ], [ -8.775673, 38.258132 ], [ -8.789921, 38.257053 ], [ -8.787689, 38.232825 ], [ -8.789749, 38.186117 ], [ -8.800049, 38.142165 ], [ -8.829575, 38.058962 ], [ -8.864594, 37.994062 ], [ -8.899956, 37.957801 ], [ -9.131012, 37.937498 ], [ -9.566667, 37.6333333 ], [ -9.566667, 38.5 ], [ -9.223859, 38.411365 ] ] ] } }
]
}
