{
"type": "FeatureCollection",
"name": "rio_1",
"crs": { "type": "name", "properties": { "name": "urn:ogc:def:crs:OGC:1.3:CRS84" } },
"features": [
{ "type": "Feature", "properties": { "begin": "1", "end": "35" }, "geometry": { "type": "Polygon", "coordinates": [ [ [ -8.854959, 38.461805 ], [ -8.863692, 38.468576 ], [ -8.871095, 38.4758 ], [ -8.874893, 38.479412 ], [ -8.877919, 38.484232 ], [ -8.883004, 38.488196 ], [ -8.889441, 38.491706 ], [ -8.89811, 38.494914 ], [ -8.904226, 38.495552 ], [ -8.906093, 38.495989 ], [ -8.907959, 38.495871 ], [ -8.913581, 38.495082 ], [ -8.923345, 38.490262 ], [ -8.927808, 38.484963 ], [ -8.927792627214611, 38.499784157022908 ], [ -8.926692, 38.501682 ], [ -8.925104, 38.502958 ], [ -8.923752, 38.503445 ], [ -8.922615, 38.505258 ], [ -8.921671, 38.505829 ], [ -8.919096, 38.506401 ], [ -8.915727, 38.507694 ], [ -8.912508, 38.509456 ], [ -8.883219, 38.514123 ], [ -8.850088, 38.498272 ], [ -8.828974, 38.481746 ], [ -8.820133, 38.474422 ], [ -8.834038, 38.463242 ], [ -8.845475, 38.45579 ], [ -8.854959, 38.461805 ] ] ] } }
]
}
